{
  "type": "FeatureCollection",
  "features": [
    {
      "type": "Feature",
      "properties": {
        "norad_id": 37960,
        "name": "COSMOS 2251 DEB",
        "group": "cosmos-2251-debris",
        "lat": 58.22719896807886,
        "lon": -22.425275488434178,
        "alt_km": 842.7221375760682,
        "timestamp": "2025-12-13T18:50:04.828435+00:00",
        "meta_object_name": "COSMOS 2251 DEB",
        "meta_object_id": "1993-036BPK",
        "meta_epoch": "2025-12-13T06:19:13.281024",
        "meta_mean_motion": 14.0785868,
        "meta_eccentricity": 0.02488023,
        "meta_inclination": 74.0565,
        "meta_ra_of_asc_node": 185.9744,
        "meta_arg_of_pericenter": 204.5251,
        "meta_mean_anomaly": 154.3891,
        "meta_ephemeris_type": 0,
        "meta_classification_type": "U",
        "meta_norad_cat_id": 37960,
        "meta_element_set_no": 999,
        "meta_rev_at_epoch": 77413,
        "meta_bstar": 0.0011508414,
        "meta_mean_motion_dot": 2.566e-05,
        "meta_mean_motion_ddot": 0,
        "tle_line1": "1 37960U 93036BPK 25347.26334816  .00002566  00000+0  11508-2 0  9995",
        "tle_line2": "2 37960  74.0565 185.9744 0248802 204.5251 154.3891 14.07858680774135"
      },
      "geometry": {
        "type": "Point",
        "coordinates": [
          -22.425275488434178,
          58.22719896807886
        ]
      }
    },
    {
      "type": "Feature",
      "properties": {
        "norad_id": 37961,
        "name": "COSMOS 2251 DEB",
        "group": "cosmos-2251-debris",
        "lat": 25.057292459545966,
        "lon": -52.56953566770672,
        "alt_km": 684.854791514007,
        "timestamp": "2025-12-13T18:50:04.828447+00:00",
        "meta_object_name": "COSMOS 2251 DEB",
        "meta_object_id": "1993-036BPL",
        "meta_epoch": "2025-12-13T03:18:27.462240",
        "meta_mean_motion": 14.57979799,
        "meta_eccentricity": 0.00406759,
        "meta_inclination": 74.0407,
        "meta_ra_of_asc_node": 136.3488,
        "meta_arg_of_pericenter": 216.8805,
        "meta_mean_anomaly": 142.9561,
        "meta_ephemeris_type": 0,
        "meta_classification_type": "U",
        "meta_norad_cat_id": 37961,
        "meta_element_set_no": 999,
        "meta_rev_at_epoch": 80071,
        "meta_bstar": 0.001729191,
        "meta_mean_motion_dot": 8.011e-05,
        "meta_mean_motion_ddot": 0,
        "tle_line1": "1 37961U 93036BPL 25347.13781785  .00008011  00000+0  17292-2 0  9990",
        "tle_line2": "2 37961  74.0407 136.3488 0040675 216.8805 142.9561 14.57979799800716"
      },
      "geometry": {
        "type": "Point",
        "coordinates": [
          -52.56953566770672,
          25.057292459545966
        ]
      }
    },
    {
      "type": "Feature",
      "properties": {
        "norad_id": 37966,
        "name": "COSMOS 2251 DEB",
        "group": "cosmos-2251-debris",
        "lat": 70.37702803237099,
        "lon": -5.332075342232273,
        "alt_km": 514.6227349375886,
        "timestamp": "2025-12-13T18:50:04.828458+00:00",
        "meta_object_name": "COSMOS 2251 DEB",
        "meta_object_id": "1993-036BPR",
        "meta_epoch": "2025-12-09T09:36:29.677536",
        "meta_mean_motion": 15.12084932,
        "meta_eccentricity": 0.0008975,
        "meta_inclination": 73.977,
        "meta_ra_of_asc_node": 237.4896,
        "meta_arg_of_pericenter": 112.4769,
        "meta_mean_anomaly": 247.7375,
        "meta_ephemeris_type": 0,
        "meta_classification_type": "U",
        "meta_norad_cat_id": 37966,
        "meta_element_set_no": 999,
        "meta_rev_at_epoch": 85292,
        "meta_bstar": 0.003976161,
        "meta_mean_motion_dot": 0.00069139,
        "meta_mean_motion_ddot": 0,
        "tle_line1": "1 37966U 93036BPR 25343.40034349  .00069139  00000+0  39762-2 0  9992",
        "tle_line2": "2 37966  73.9770 237.4896 0008975 112.4769 247.7375 15.12084932852920"
      },
      "geometry": {
        "type": "Point",
        "coordinates": [
          -5.332075342232273,
          70.37702803237099
        ]
      }
    },
    {
      "type": "Feature",
      "properties": {
        "norad_id": 37967,
        "name": "COSMOS 2251 DEB",
        "group": "cosmos-2251-debris",
        "lat": -35.55196025231017,
        "lon": -32.73056944314413,
        "alt_km": 702.6673500893385,
        "timestamp": "2025-12-13T18:50:04.828469+00:00",
        "meta_object_name": "COSMOS 2251 DEB",
        "meta_object_id": "1993-036BPS",
        "meta_epoch": "2025-12-12T16:48:51.802848",
        "meta_mean_motion": 14.40515653,
        "meta_eccentricity": 0.01509346,
        "meta_inclination": 74.0143,
        "meta_ra_of_asc_node": 137.4555,
        "meta_arg_of_pericenter": 276.2536,
        "meta_mean_anomaly": 82.1445,
        "meta_ephemeris_type": 0,
        "meta_classification_type": "U",
        "meta_norad_cat_id": 37967,
        "meta_element_set_no": 999,
        "meta_rev_at_epoch": 64735,
        "meta_bstar": 0.0023064533,
        "meta_mean_motion_dot": 8.381e-05,
        "meta_mean_motion_ddot": 0,
        "tle_line1": "1 37967U 93036BPS 25346.70059957  .00008381  00000+0  23065-2 0  9992",
        "tle_line2": "2 37967  74.0143 137.4555 0150934 276.2536  82.1445 14.40515653647359"
      },
      "geometry": {
        "type": "Point",
        "coordinates": [
          -32.73056944314413,
          -35.55196025231017
        ]
      }
    },
    {
      "type": "Feature",
      "properties": {
        "norad_id": 37968,
        "name": "COSMOS 2251 DEB",
        "group": "cosmos-2251-debris",
        "lat": -52.33871266138496,
        "lon": 110.85139752078928,
        "alt_km": 619.2445222859487,
        "timestamp": "2025-12-13T18:50:04.828480+00:00",
        "meta_object_name": "COSMOS 2251 DEB",
        "meta_object_id": "1993-036BPT",
        "meta_epoch": "2025-12-13T01:47:19.904352",
        "meta_mean_motion": 15.00631404,
        "meta_eccentricity": 0.00804189,
        "meta_inclination": 74.0008,
        "meta_ra_of_asc_node": 270.4748,
        "meta_arg_of_pericenter": 26.0645,
        "meta_mean_anomaly": 334.4556,
        "meta_ephemeris_type": 0,
        "meta_classification_type": "U",
        "meta_norad_cat_id": 37968,
        "meta_element_set_no": 999,
        "meta_rev_at_epoch": 60224,
        "meta_bstar": 0.001541289,
        "meta_mean_motion_dot": 0.00020898,
        "meta_mean_motion_ddot": 0,
        "tle_line1": "1 37968U 93036BPT 25347.07453593  .00020898  00000+0  15413-2 0  9993",
        "tle_line2": "2 37968  74.0008 270.4748 0080418  26.0645 334.4556 15.00631404602248"
      },
      "geometry": {
        "type": "Point",
        "coordinates": [
          110.85139752078928,
          -52.33871266138496
        ]
      }
    },
    {
      "type": "Feature",
      "properties": {
        "norad_id": 37971,
        "name": "COSMOS 2251 DEB",
        "group": "cosmos-2251-debris",
        "lat": -39.28884146246819,
        "lon": 26.19524037015514,
        "alt_km": 772.8153624101524,
        "timestamp": "2025-12-13T18:50:04.828491+00:00",
        "meta_object_name": "COSMOS 2251 DEB",
        "meta_object_id": "1993-036BPW",
        "meta_epoch": "2025-12-11T10:40:32.065248",
        "meta_mean_motion": 14.48615122,
        "meta_eccentricity": 0.00674117,
        "meta_inclination": 73.9935,
        "meta_ra_of_asc_node": 44.173,
        "meta_arg_of_pericenter": 183.4136,
        "meta_mean_anomaly": 176.6574,
        "meta_ephemeris_type": 0,
        "meta_classification_type": "U",
        "meta_norad_cat_id": 37971,
        "meta_element_set_no": 999,
        "meta_rev_at_epoch": 60659,
        "meta_bstar": 0.0043286348,
        "meta_mean_motion_dot": 0.00016772,
        "meta_mean_motion_ddot": 0,
        "tle_line1": "1 37971U 93036BPW 25345.44481557  .00016772  00000+0  43286-2 0  9992",
        "tle_line2": "2 37971  73.9935  44.1730 0067411 183.4136 176.6574 14.48615122606595"
      },
      "geometry": {
        "type": "Point",
        "coordinates": [
          26.19524037015514,
          -39.28884146246819
        ]
      }
    },
    {
      "type": "Feature",
      "properties": {
        "norad_id": 37975,
        "name": "COSMOS 2251 DEB",
        "group": "cosmos-2251-debris",
        "lat": -48.35081147204492,
        "lon": -56.797102200429876,
        "alt_km": 580.7547743653349,
        "timestamp": "2025-12-13T18:50:04.828501+00:00",
        "meta_object_name": "COSMOS 2251 DEB",
        "meta_object_id": "1993-036BQA",
        "meta_epoch": "2025-12-11T15:00:34.783776",
        "meta_mean_motion": 14.75964152,
        "meta_eccentricity": 0.0096009,
        "meta_inclination": 74.0032,
        "meta_ra_of_asc_node": 326.255,
        "meta_arg_of_pericenter": 315.8702,
        "meta_mean_anomaly": 43.4838,
        "meta_ephemeris_type": 0,
        "meta_classification_type": "U",
        "meta_norad_cat_id": 37975,
        "meta_element_set_no": 999,
        "meta_rev_at_epoch": 69729,
        "meta_bstar": 0.0059326203,
        "meta_mean_motion_dot": 0.00044255,
        "meta_mean_motion_ddot": 0,
        "tle_line1": "1 37975U 93036BQA 25345.62540259  .00044255  00000+0  59326-2 0  9990",
        "tle_line2": "2 37975  74.0032 326.2550 0096009 315.8702  43.4838 14.75964152697299"
      },
      "geometry": {
        "type": "Point",
        "coordinates": [
          -56.797102200429876,
          -48.35081147204492
        ]
      }
    }
  ]
}